{
    "links": {
        "self": "http://www.neowsapp.com/rest/v1/neo/3689355?api_key=iIulBulltgU6a56xZRHN4H3l9WmuAYTsLGpBGhQ2"
    },
    "id": "3689355",
    "neo_reference_id": "3689355",
    "name": "(2014 SO142)",
    "designation": "2014 SO142",
    "nasa_jpl_url": "http://ssd.jpl.nasa.gov/sbdb.cgi?sstr=3689355",
    "absolute_magnitude_h": 24.4,
    "estimated_diameter": {
        "kilometers": {
            "estimated_diameter_min": 0.0350392641,
            "estimated_diameter_max": 0.0783501764
        },
        "meters": {
            "estimated_diameter_min": 35.0392641108,
            "estimated_diameter_max": 78.3501764334
        },
        "miles": {
            "estimated_diameter_min": 0.0217723826,
            "estimated_diameter_max": 0.0486845275
        },
        "feet": {
            "estimated_diameter_min": 114.9582192654,
            "estimated_diameter_max": 257.0543928497
        }
    },
    "is_potentially_hazardous_asteroid": false,
    "close_approach_data": [
        {
            "close_approach_date": "2012-04-26",
            "close_approach_date_full": "2012-Apr-26 05:53",
            "epoch_date_close_approach": 1335419580000,
            "relative_velocity": {
                "kilometers_per_second": "25.1815621817",
                "kilometers_per_hour": "90653.6238541348",
                "miles_per_hour": "56328.6364442539"
            },
            "miss_distance": {
                "astronomical": "0.4777472672",
                "lunar": "185.8436869408",
                "kilometers": "71469973.571440864",
                "miles": "44409382.2868733632"
            },
            "orbiting_body": "Earth"
        },
        {
            "close_approach_date": "2014-09-17",
            "close_approach_date_full": "2014-Sep-17 13:32",
            "epoch_date_close_approach": 1410960720000,
            "relative_velocity": {
                "kilometers_per_second": "11.6576655242",
                "kilometers_per_hour": "41967.5958872165",
                "miles_per_hour": "26077.0320111429"
            },
            "miss_distance": {
                "astronomical": "0.0203253077",
                "lunar": "7.9065446953",
                "kilometers": "3040622.739014599",
                "miles": "1889355.3594515062"
            },
            "orbiting_body": "Earth"
        }
    ],
    "orbital_data": {
        "orbit_id": "10",
        "orbit_determination_date": "2017-04-06 08:38:35",
        "first_observation_date": "2014-09-20",
        "last_observation_date": "2014-10-01",
        "data_arc_in_days": 11,
        "observations_used": 106,
        "orbit_uncertainty": "7",
        "minimum_orbit_intersection": ".0204008",
        "jupiter_tisserand_invariant": "4.105",
        "epoch_osculation": "2459000.5",
        "eccentricity": ".4756619209996165",
        "semi_major_axis": "1.671205253740179",
        "inclination": "6.121865996981844",
        "ascending_node_longitude": "184.8601670452981",
        "orbital_period": "789.1201175216862",
        "perihelion_distance": ".8762765523614739",
        "perihelion_argument": "115.5701021735114",
        "aphelion_distance": "2.466133955118884",
        "perihelion_time": "2459244.808342962102",
        "mean_anomaly": "248.5454805757886",
        "mean_motion": ".4562043116206661",
        "equinox": "J2000",
        "orbit_class": {
            "orbit_class_type": "APO",
            "orbit_class_description": "Near-Earth asteroid orbits which cross the Earth’s orbit similar to that of 1862 Apollo",
            "orbit_class_range": "a (semi-major axis) > 1.0 AU; q (perihelion) < 1.017 AU"
        }
    },
    "is_sentry_object": false
}